[{"OBJECT_NAME":"STARLINK-4378","OBJECT_ID":"2022-099M","EPOCH":"2026-03-09T21:57:07.425792","MEAN_MOTION":15.01253303,"ECCENTRICITY":8.015e-5,"INCLINATION":97.6016,"RA_OF_ASC_NODE":190.4295,"ARG_OF_PERICENTER":205.3589,"MEAN_ANOMALY":154.7596,"EPHEMERIS_TYPE":0,"CLASSIFICATION_TYPE":"U","NORAD_CAT_ID":53476,"ELEMENT_SET_NO":999,"REV_AT_EPOCH":19601,"BSTAR":-1.8950603e-5,"MEAN_MOTION_DOT":-3.02e-6,"MEAN_MOTION_DDOT":0},{"OBJECT_NAME":"CZ-4C DEB","OBJECT_ID":"2007-055F","EPOCH":"2026-03-08T14:19:11.291808","MEAN_MOTION":14.69263563,"ECCENTRICITY":0.0140839,"INCLINATION":97.9129,"RA_OF_ASC_NODE":7.1914,"ARG_OF_PERICENTER":192.0218,"MEAN_ANOMALY":167.7615,"EPHEMERIS_TYPE":0,"CLASSIFICATION_TYPE":"U","NORAD_CAT_ID":35251,"ELEMENT_SET_NO":999,"REV_AT_EPOCH":96300,"BSTAR":0.0011043861,"MEAN_MOTION_DOT":7.534e-5,"MEAN_MOTION_DDOT":0}]
